0 FENGYUN 2B AKM
1 26460U 00032C   13280.81750327 -.00000267  00000-0  10000-3 0  1936
2 26460 010.5144 047.9912 0020436 278.5979 081.1834 01.00136892 75758
0 FENGYUN 2B AKM
1 26460U 00032C   13283.81327696 -.00000263  00000-0  10000-3 0  1945
2 26460 010.5197 047.9544 0020537 277.9944 081.7830 01.00135780 75784
0 FENGYUN 2B AKM
1 26460U 00032C   13286.80910522 -.00000256  00000-0  10000-3 0  1967
2 26460 010.5250 047.9176 0020806 280.4822 079.2934 01.00134559 75812
0 FENGYUN 2B AKM
1 26460U 00032C   13291.80209226 -.00000232  00000-0  10000-3 0  1970
2 26460 010.5337 047.8591 0020786 281.7278 078.0052 01.00132912 75868
0 FENGYUN 2B AKM
1 26460U 00032C   13294.79795957 -.00000214  00000-0  10000-3 0  1983
2 26460 010.5395 047.8201 0020819 281.3379 078.3829 01.00132019 75891
